ONEWEB-0349             
1 49281U 21090C   24315.44593564  .00000004  00000+0 -23254-4 0  9995
2 49281  87.9292  30.5752 0001919 101.8496 258.2852 13.20770763152774
ONEWEB-0353             
1 49282U 21090D   24315.53953337  .00000113  00000+0  26924-3 0  9990
2 49282  87.9025  45.7667 0001943  96.9642 263.1709 13.14505143152199
ONEWEB-0356             
1 49283U 21090E   24315.44434735  .00000000  00000+0 -31724-4 0  9998
2 49283  87.9292  30.5686 0002467 122.4841 237.6532 13.20768713152772
ONEWEB-0358             
1 49284U 21090F   24315.47433287 -.00000217  00000+0 -56546-3 0  9992
2 49284  87.9293  30.5503 0001821 109.9532 250.1797 13.20770489153500
ONEWEB-0359             
1 49285U 21090G   24315.47118377  .00000101  00000+0  21627-3 0  9995
2 49285  87.9288  30.5669 0001387 106.5328 253.5957 13.20769755153487
ONEWEB-0360             
1 49286U 21090H   24315.46171673  .00000172  00000+0  39136-3 0  9995
2 49286  87.9290  30.5741 0001658 102.6828 257.4491 13.20772444152793
ONEWEB-0361             
1 49287U 21090J   24315.44277799  .00000112  00000+0  24349-3 0  9994
2 49287  87.9291  30.5730 0001969 104.1916 255.9436 13.20770401153247
ONEWEB-0362             
1 49288U 21090K   24315.53956262  .00000086  00000+0  18299-3 0  9991
2 49288  87.9184  61.0483 0001508  92.6790 267.4515 13.19725799149938
